start=new Date('2023-01-27T00:00:00.000Z').valueOf();
sats=[{"SITE":"AFETR","CENTER_NAME":"EARTH","OBJECT_ID":"2020-038BG","MEAN_MOTION_DDOT":"0.0000000000000","EPOCH":"2023-01-26T00:52:16.159296","NORAD_CAT_ID":"45784","LAUNCH_DATE":"2020-06-13","PERIOD":"95.592","ARG_OF_PERICENTER":"92.0539","MEAN_ANOMALY":"268.0573","INCLINATION":"53.0533","FILE":"3761951","TLE_LINE2":"2 45784  53.0533 268.2338 0001077  92.0539 268.0573 15.06399917145139","REF_FRAME":"TEME","ECCENTRICITY":"0.00010770","ELEMENT_SET_NO":"999","APOAPSIS":"547.960","TLE_LINE1":"1 45784U 20038BG  23026.03629814  .00000795  00000-0  72260-4 0  9999","TIME_SYSTEM":"UTC","DECAY_DATE":null,"PERIAPSIS":"546.468","RA_OF_ASC_NODE":"268.2338","BSTAR":"0.00007226000000","EPHEMERIS_TYPE":"0","RCS_SIZE":"LARGE","GP_ID":"223752687","MEAN_ELEMENT_THEORY":"SGP4","MEAN_MOTION_DOT":"0.00000795","MEAN_MOTION":"15.06399917","REV_AT_EPOCH":"14513","SEMIMAJOR_AXIS":"6925.349","COUNTRY_CODE":"US","CLASSIFICATION_TYPE":"U","OBJECT_NAME":"STARLINK-1510","OBJECT_TYPE":"PAYLOAD"},{"EPOCH":"2023-01-26T02:01:15.938400","CENTER_NAME":"EARTH","OBJECT_ID":"2020-038BH","MEAN_MOTION_DDOT":"0.0000000000000","SITE":"AFETR","LAUNCH_DATE":"2020-06-13","NORAD_CAT_ID":"45785","ECCENTRICITY":"0.00012720","TLE_LINE2":"2 45785  53.0498 268.0249 0001272  96.5228 263.5906 15.06410308145149","REF_FRAME":"TEME","FILE":"3761951","INCLINATION":"53.0498","MEAN_ANOMALY":"263.5906","PERIOD":"95.591","ARG_OF_PERICENTER":"96.5228","ELEMENT_SET_NO":"999","BSTAR":"0.00037765000000","DECAY_DATE":null,"PERIAPSIS":"546.301","RA_OF_ASC_NODE":"268.0249","TLE_LINE1":"1 45785U 20038BH  23026.08421225  .00005350  00000-0  37765-3 0  9993","TIME_SYSTEM":"UTC","APOAPSIS":"548.063","MEAN_MOTION_DOT":"0.00005350","MEAN_ELEMENT_THEORY":"SGP4","RCS_SIZE":"LARGE","GP_ID":"223752937","EPHEMERIS_TYPE":"0","SEMIMAJOR_AXIS":"6925.317","REV_AT_EPOCH":"14514","MEAN_MOTION":"15.06410308","OBJECT_TYPE":"PAYLOAD","OBJECT_NAME":"STARLINK-1512","COUNTRY_CODE":"US","CLASSIFICATION_TYPE":"U"},{"EPHEMERIS_TYPE":"0","GP_ID":"223753689","RCS_SIZE":"LARGE","MEAN_ELEMENT_THEORY":"SGP4","MEAN_MOTION_DOT":"0.00000277","APOAPSIS":"548.068","TLE_LINE1":"1 45786U 20038BJ  23026.00312736  .00000277  00000-0  37515-4 0  9999","TIME_SYSTEM":"UTC","DECAY_DATE":null,"PERIAPSIS":"546.374","RA_OF_ASC_NODE":"268.3772","BSTAR":"0.00003751500000","COUNTRY_CODE":"US","CLASSIFICATION_TYPE":"U","OBJECT_NAME":"STARLINK-1513","OBJECT_TYPE":"PAYLOAD","MEAN_MOTION":"15.06397451","REV_AT_EPOCH":"14513","SEMIMAJOR_AXIS":"6925.356","NORAD_CAT_ID":"45786","LAUNCH_DATE":"2020-06-13","SITE":"AFETR","CENTER_NAME":"EARTH","MEAN_MOTION_DDOT":"0.0000000000000","OBJECT_ID":"2020-038BJ","EPOCH":"2023-01-26T00:04:30.203904","ELEMENT_SET_NO":"999","PERIOD":"95.592","ARG_OF_PERICENTER":"79.8819","MEAN_ANOMALY":"280.2308","INCLINATION":"53.0536","FILE":"3761951","ECCENTRICITY":"0.00012230","TLE_LINE2":"2 45786  53.0536 268.3772 0001223  79.8819 280.2308 15.06397451145137","REF_FRAME":"TEME"},{"MEAN_MOTION":"15.06409270","REV_AT_EPOCH":"14617","SEMIMAJOR_AXIS":"6925.320","CLASSIFICATION_TYPE":"U","COUNTRY_CODE":"US","OBJECT_NAME":"STARLINK-1517","OBJECT_TYPE":"PAYLOAD","APOAPSIS":"548.036","TLE_LINE1":"1 45787U 20038BK  23026.80665975  .00004957  00000-0  35134-3 0  9997","TIME_SYSTEM":"UTC","DECAY_DATE":null,"PERIAPSIS":"546.334","RA_OF_ASC_NODE":"264.7770","BSTAR":"0.00035134000000","EPHEMERIS_TYPE":"0","GP_ID":"223765392","RCS_SIZE":"LARGE","MEAN_ELEMENT_THEORY":"SGP4","MEAN_MOTION_DOT":"0.00004957","PERIOD":"95.592","ARG_OF_PERICENTER":"87.9074","MEAN_ANOMALY":"272.2056","INCLINATION":"53.0521","FILE":"3762189","TLE_LINE2":"2 45787  53.0521 264.7770 0001229  87.9074 272.2056 15.06409270146178","REF_FRAME":"TEME","ECCENTRICITY":"0.00012290","ELEMENT_SET_NO":"999","SITE":"AFETR","CENTER_NAME":"EARTH","OBJECT_ID":"2020-038BK","MEAN_MOTION_DDOT":"0.0000000000000","EPOCH":"2023-01-26T19:21:35.402400","NORAD_CAT_ID":"45787","LAUNCH_DATE":"2020-06-13"},{"LAUNCH_DATE":"2020-08-07","NORAD_CAT_ID":"46027","EPOCH":"2023-01-26T18:43:06.626784","OBJECT_ID":"2020-055A","MEAN_MOTION_DDOT":"0.0000000000000","CENTER_NAME":"EARTH","SITE":"AFETR","ELEMENT_SET_NO":"999","ECCENTRICITY":"0.00011810","TLE_LINE2":"2 46027  53.0519 194.9057 0001181  88.2082 271.9043 15.06409222136869","REF_FRAME":"TEME","FILE":"3762184","INCLINATION":"53.0519","MEAN_ANOMALY":"271.9043","PERIOD":"95.592","ARG_OF_PERICENTER":"88.2082","MEAN_MOTION_DOT":"0.00006509","MEAN_ELEMENT_THEORY":"SGP4","RCS_SIZE":"LARGE","GP_ID":"223765844","EPHEMERIS_TYPE":"0","BSTAR":"0.00045532000000","DECAY_DATE":null,"RA_OF_ASC_NODE":"194.9057","PERIAPSIS":"546.367","TIME_SYSTEM":"UTC","TLE_LINE1":"1 46027U 20055A   23026.77993781  .00006509  00000-0  45532-3 0  9997","APOAPSIS":"548.003","OBJECT_TYPE":"PAYLOAD","OBJECT_NAME":"STARLINK-1522","CLASSIFICATION_TYPE":"U","COUNTRY_CODE":"US","SEMIMAJOR_AXIS":"6925.320","REV_AT_EPOCH":"13686","MEAN_MOTION":"15.06409222"},{"INCLINATION":"53.0547","FILE":"3761951","TLE_LINE2":"2 46028  53.0547 196.3114 0001144  90.7065 269.4055 15.06394609137340","ECCENTRICITY":"0.00011440","REF_FRAME":"TEME","ARG_OF_PERICENTER":"90.7065","PERIOD":"95.592","MEAN_ANOMALY":"269.4055","ELEMENT_SET_NO":"999","MEAN_MOTION_DDOT":"0.0000000000000","OBJECT_ID":"2020-055B","CENTER_NAME":"EARTH","EPOCH":"2023-01-26T11:06:38.404800","SITE":"AFETR","NORAD_CAT_ID":"46028","LAUNCH_DATE":"2020-08-07","REV_AT_EPOCH":"13734","SEMIMAJOR_AXIS":"6925.365","MEAN_MOTION":"15.06394609","OBJECT_NAME":"STARLINK-1523","OBJECT_TYPE":"PAYLOAD","CLASSIFICATION_TYPE":"U","COUNTRY_CODE":"US","RA_OF_ASC_NODE":"196.3114","DECAY_DATE":null,"PERIAPSIS":"546.438","BSTAR":"0.00005260400000","APOAPSIS":"548.022","TIME_SYSTEM":"UTC","TLE_LINE1":"1 46028U 20055B   23026.46294450  .00000502  00000-0  52604-4 0  9997","MEAN_ELEMENT_THEORY":"SGP4","MEAN_MOTION_DOT":"0.00000502","EPHEMERIS_TYPE":"0","RCS_SIZE":"LARGE","GP_ID":"223754438"},{"PERIOD":"95.591","ARG_OF_PERICENTER":"92.0591","MEAN_ANOMALY":"268.0494","FILE":"3762185","INCLINATION":"53.0554","ECCENTRICITY":"0.00008390","TLE_LINE2":"2 46029  53.0554 194.8497 0000839  92.0591 268.0494 15.06410684136876","REF_FRAME":"TEME","ELEMENT_SET_NO":"999","SITE":"AFETR","CENTER_NAME":"EARTH","MEAN_MOTION_DDOT":"0.0000000000000","OBJECT_ID":"2020-055C","EPOCH":"2023-01-26T18:53:43.214208","NORAD_CAT_ID":"46029","LAUNCH_DATE":"2020-08-07","MEAN_MOTION":"15.06410684","REV_AT_EPOCH":"13687","SEMIMAJOR_AXIS":"6925.316","COUNTRY_CODE":"US","CLASSIFICATION_TYPE":"U","OBJECT_NAME":"STARLINK-1526","OBJECT_TYPE":"PAYLOAD","APOAPSIS":"547.762","TLE_LINE1":"1 46029U 20055C   23026.78730572  .00005136  00000-0  36334-3 0  9992","TIME_SYSTEM":"UTC","DECAY_DATE":null,"RA_OF_ASC_NODE":"194.8497","PERIAPSIS":"546.600","BSTAR":"0.00036334000000","EPHEMERIS_TYPE":"0","RCS_SIZE":"LARGE","GP_ID":"223765500","MEAN_ELEMENT_THEORY":"SGP4","MEAN_MOTION_DOT":"0.00005136"},{"BSTAR":"0.00008827400000","DECAY_DATE":null,"RA_OF_ASC_NODE":"195.3848","PERIAPSIS":"546.427","TLE_LINE1":"1 46030U 20055D   23026.67303617  .00001034  00000-0  88274-4 0  9992","TIME_SYSTEM":"UTC","APOAPSIS":"547.989","MEAN_MOTION_DOT":"0.00001034","MEAN_ELEMENT_THEORY":"SGP4","GP_ID":"223761541","RCS_SIZE":"LARGE","EPHEMERIS_TYPE":"0","SEMIMAJOR_AXIS":"6925.343","REV_AT_EPOCH":"13685","MEAN_MOTION":"15.06401749","OBJECT_TYPE":"PAYLOAD","OBJECT_NAME":"STARLINK-1534","CLASSIFICATION_TYPE":"U","COUNTRY_CODE":"US","EPOCH":"2023-01-26T16:09:10.325088","CENTER_NAME":"EARTH","OBJECT_ID":"2020-055D","MEAN_MOTION_DDOT":"0.0000000000000","SITE":"AFETR","LAUNCH_DATE":"2020-08-07","NORAD_CAT_ID":"46030","TLE_LINE2":"2 46030  53.0533 195.3848 0001128  82.8382 277.2735 15.06401749136858","REF_FRAME":"TEME","ECCENTRICITY":"0.00011280","INCLINATION":"53.0533","FILE":"3761992","MEAN_ANOMALY":"277.2735","PERIOD":"95.592","ARG_OF_PERICENTER":"82.8382","ELEMENT_SET_NO":"999"},{"BSTAR":"0.00006208900000","PERIAPSIS":"546.335","DECAY_DATE":null,"RA_OF_ASC_NODE":"195.6568","TIME_SYSTEM":"UTC","TLE_LINE1":"1 46031U 20055E   23026.60943167  .00000643  00000-0  62089-4 0  9997","APOAPSIS":"548.101","MEAN_MOTION_DOT":"0.00000643","MEAN_ELEMENT_THEORY":"SGP4","RCS_SIZE":"LARGE","GP_ID":"223753712","EPHEMERIS_TYPE":"0","SEMIMAJOR_AXIS":"6925.353","REV_AT_EPOCH":"13734","MEAN_MOTION":"15.06398553","OBJECT_TYPE":"PAYLOAD","OBJECT_NAME":"STARLINK-1544","CLASSIFICATION_TYPE":"U","COUNTRY_CODE":"US","EPOCH":"2023-01-26T14:37:34.896288","MEAN_MOTION_DDOT":"0.0000000000000","OBJECT_ID":"2020-055E","CENTER_NAME":"EARTH","SITE":"AFETR","LAUNCH_DATE":"2020-08-07","NORAD_CAT_ID":"46031","REF_FRAME":"TEME","TLE_LINE2":"2 46031  53.0527 195.6568 0001275  90.0306 270.0829 15.06398553137342","ECCENTRICITY":"0.00012750","FILE":"3761951","INCLINATION":"53.0527","MEAN_ANOMALY":"270.0829","PERIOD":"95.592","ARG_OF_PERICENTER":"90.0306","ELEMENT_SET_NO":"999"},{"TLE_LINE1":"1 46032U 20055F   23025.84370671  .00000236  00000-0  34752-4 0  9991","TIME_SYSTEM":"UTC","APOAPSIS":"548.041","BSTAR":"0.00003475200000","PERIAPSIS":"546.424","DECAY_DATE":null,"RA_OF_ASC_NODE":"199.1060","GP_ID":"223753940","RCS_SIZE":"LARGE","EPHEMERIS_TYPE":"0","MEAN_MOTION_DOT":"0.00000236","MEAN_ELEMENT_THEORY":"SGP4","MEAN_MOTION":"15.06393773","SEMIMAJOR_AXIS":"6925.368","REV_AT_EPOCH":"13724","COUNTRY_CODE":"US","CLASSIFICATION_TYPE":"U","OBJECT_TYPE":"PAYLOAD","OBJECT_NAME":"STARLINK-1555","SITE":"AFETR","EPOCH":"2023-01-25T20:14:56.259744","CENTER_NAME":"EARTH","OBJECT_ID":"2020-055F","MEAN_MOTION_DDOT":"0.0000000000000","LAUNCH_DATE":"2020-08-07","NORAD_CAT_ID":"46032","MEAN_ANOMALY":"272.7553","PERIOD":"95.593","ARG_OF_PERICENTER":"87.3570","TLE_LINE2":"2 46032  53.0524 199.1060 0001167  87.3570 272.7553 15.06393773137249","REF_FRAME":"TEME","ECCENTRICITY":"0.00011670","FILE":"3761951","INCLINATION":"53.0524","ELEMENT_SET_NO":"999"}];
